{"type": "FeatureCollection", "features": [ {"type": "Feature", "properties": {"norad_id": 28649, "name": "IRS-P5 (CARTOSAT-1)", "group": "resource", "lat": 37.897130992724094, "lon": -149.85361280697254, "alt_km": 593.7763724175875, "timestamp": "2025-12-24T07:45:05.855329+00:00", "meta": {"OBJECT_NAME": "IRS-P5 (CARTOSAT-1)", "OBJECT_ID": "2005-017A", "EPOCH": "2025-12-23T23:03:43.412832", "MEAN_MOTION": 14.9044043, "ECCENTRICITY": 5.641e-05, "INCLINATION": 97.5482, "RA_OF_ASC_NODE": 23.8761, "ARG_OF_PERICENTER": 59.0695, "MEAN_ANOMALY": 301.0579, "EPHEMERIS_TYPE": 0, "CLASSIFICATION_TYPE": "U", "NORAD_CAT_ID": 28649, "ELEMENT_SET_NO": 999, "REV_AT_EPOCH": 11771, "BSTAR": 0.00016789118, "MEAN_MOTION_DOT": 1.584e-05, "MEAN_MOTION_DDOT": 0}, "tle": {"line1": "1 28649U 05017A   25357.96091913  .00001584  00000+0  16789-3 0  9993", "line2": "2 28649  97.5482  23.8761 0000564  59.0695 301.0579 14.90440430117713"}}, "geometry": {"type": "Point", "coordinates": [-149.85361280697254, 37.897130992724094]}}, {"type": "Feature", "properties": {"norad_id": 28893, "name": "SINAH 1", "group": "resource", "lat": 64.55046688919413, "lon": -35.31312847410537, "alt_km": 663.1732584930678, "timestamp": "2025-12-24T07:45:05.855340+00:00", "meta": {"OBJECT_NAME": "SINAH 1", "OBJECT_ID": "2005-043D", "EPOCH": "2025-12-23T23:01:53.175072", "MEAN_MOTION": 14.63973727, "ECCENTRICITY": 0.0015713, "INCLINATION": 98.2609, "RA_OF_ASC_NODE": 126.5473, "ARG_OF_PERICENTER": 104.2831, "MEAN_ANOMALY": 256.0117, "EPHEMERIS_TYPE": 0, "CLASSIFICATION_TYPE": "U", "NORAD_CAT_ID": 28893, "ELEMENT_SET_NO": 999, "REV_AT_EPOCH": 7488, "BSTAR": 9.0392145e-05, "MEAN_MOTION_DOT": 4.25e-06, "MEAN_MOTION_DDOT": 0}, "tle": {"line1": "1 28893U 05043D   25357.95964323  .00000425  00000+0  90392-4 0  9992", "line2": "2 28893  98.2609 126.5473 0015713 104.2831 256.0117 14.63973727 74888"}}, "geometry": {"type": "Point", "coordinates": [-35.31312847410537, 64.55046688919413]}}, {"type": "Feature", "properties": {"norad_id": 29079, "name": "EROS B", "group": "resource", "lat": -40.769502528176254, "lon": -70.90747191862738, "alt_km": 359.770984642626, "timestamp": "2025-12-24T07:45:05.855350+00:00", "meta": {"OBJECT_NAME": "EROS B", "OBJECT_ID": "2006-014A", "EPOCH": "2025-12-23T23:10:28.226208", "MEAN_MOTION": 15.71861108, "ECCENTRICITY": 0.00041323, "INCLINATION": 97.3459, "RA_OF_ASC_NODE": 115.103, "ARG_OF_PERICENTER": 310.9038, "MEAN_ANOMALY": 49.1867, "EPHEMERIS_TYPE": 0, "CLASSIFICATION_TYPE": "U", "NORAD_CAT_ID": 29079, "ELEMENT_SET_NO": 999, "REV_AT_EPOCH": 9256, "BSTAR": 0.001389713, "MEAN_MOTION_DOT": 0.00183766, "MEAN_MOTION_DDOT": 0}, "tle": {"line1": "1 29079U 06014A   25357.96560447  .00183766  00000+0  13897-2 0  9991", "line2": "2 29079  97.3459 115.1030 0004132 310.9038  49.1867 15.71861108 92566"}}, "geometry": {"type": "Point", "coordinates": [-70.90747191862738, -40.769502528176254]}}, {"type": "Feature", "properties": {"norad_id": 29228, "name": "RESURS-DK 1", "group": "resource", "lat": -69.6672501279879, "lon": -27.54497839317714, "alt_km": 531.5786352609903, "timestamp": "2025-12-24T07:45:05.855361+00:00", "meta": {"OBJECT_NAME": "RESURS-DK 1", "OBJECT_ID": "2006-021A", "EPOCH": "2025-12-23T14:42:01.773792", "MEAN_MOTION": 15.122178, "ECCENTRICITY": 0.00068724, "INCLINATION": 69.9337, "RA_OF_ASC_NODE": 73.7385, "ARG_OF_PERICENTER": 249.2294, "MEAN_ANOMALY": 110.8136, "EPHEMERIS_TYPE": 0, "CLASSIFICATION_TYPE": "U", "NORAD_CAT_ID": 29228, "ELEMENT_SET_NO": 999, "REV_AT_EPOCH": 7602, "BSTAR": 0.00016371419, "MEAN_MOTION_DOT": 2.729e-05, "MEAN_MOTION_DDOT": 0}, "tle": {"line1": "1 29228U 06021A   25357.61252053  .00002729  00000+0  16371-3 0  9998", "line2": "2 29228  69.9337  73.7385 0006872 249.2294 110.8136 15.12217800 76022"}}, "geometry": {"type": "Point", "coordinates": [-27.54497839317714, -69.6672501279879]}}, {"type": "Feature", "properties": {"norad_id": 29268, "name": "ARIRANG-2 (KOMPSAT-2)", "group": "resource", "lat": 40.7668094793911, "lon": 179.42141122233957, "alt_km": 681.6266207233921, "timestamp": "2025-12-24T07:45:05.855372+00:00", "meta": {"OBJECT_NAME": "ARIRANG-2 (KOMPSAT-2)", "OBJECT_ID": "2006-031A", "EPOCH": "2025-12-24T00:03:45.426240", "MEAN_MOTION": 14.64504345, "ECCENTRICITY": 0.0013127, "INCLINATION": 97.8254, "RA_OF_ASC_NODE": 185.9264, "ARG_OF_PERICENTER": 270.5086, "MEAN_ANOMALY": 242.625, "EPHEMERIS_TYPE": 0, "CLASSIFICATION_TYPE": "U", "NORAD_CAT_ID": 29268, "ELEMENT_SET_NO": 999, "REV_AT_EPOCH": 3583, "BSTAR": 0.00014689958, "MEAN_MOTION_DOT": 7.34e-06, "MEAN_MOTION_DDOT": 0}, "tle": {"line1": "1 29268U 06031A   25358.00260910  .00000734  00000+0  14690-3 0  9994", "line2": "2 29268  97.8254 185.9264 0013127 270.5086 242.6250 14.64504345 35837"}}, "geometry": {"type": "Point", "coordinates": [179.42141122233957, 40.7668094793911]}}, {"type": "Feature", "properties": {"norad_id": 29709, "name": "LAPAN-TUBSAT", "group": "resource", "lat": 41.19678254204828, "lon": 175.90242531721847, "alt_km": 609.5147225087076, "timestamp": "2025-12-24T07:45:05.855383+00:00", "meta": {"OBJECT_NAME": "LAPAN-TUBSAT", "OBJECT_ID": "2007-001A", "EPOCH": "2025-12-23T23:03:02.733984", "MEAN_MOTION": 14.856874, "ECCENTRICITY": 0.00132943, "INCLINATION": 98.1261, "RA_OF_ASC_NODE": 348.3476, "ARG_OF_PERICENTER": 40.9181, "MEAN_ANOMALY": 319.3029, "EPHEMERIS_TYPE": 0, "CLASSIFICATION_TYPE": "U", "NORAD_CAT_ID": 29709, "ELEMENT_SET_NO": 999, "REV_AT_EPOCH": 2513, "BSTAR": 7.3886716e-05, "MEAN_MOTION_DOT": 5.84e-06, "MEAN_MOTION_DDOT": 0}, "tle": {"line1": "1 29709U 07001A   25357.96044831  .00000584  00000+0  73887-4 0  9995", "line2": "2 29709  98.1261 348.3476 0013294  40.9181 319.3029 14.85687400 25134"}}, "geometry": {"type": "Point", "coordinates": [175.90242531721847, 41.19678254204828]}}, {"type": "Feature", "properties": {"norad_id": 31113, "name": "HAIYANG-1B", "group": "resource", "lat": -80.28009092645028, "lon": 103.2938276496824, "alt_km": 797.4975308221156, "timestamp": "2025-12-24T07:45:05.855398+00:00", "meta": {"OBJECT_NAME": "HAIYANG-1B", "OBJECT_ID": "2007-010A", "EPOCH": "2025-12-23T22:07:32.109888", "MEAN_MOTION": 14.3096859, "ECCENTRICITY": 0.00136744, "INCLINATION": 98.3327, "RA_OF_ASC_NODE": 341.7386, "ARG_OF_PERICENTER": 6.0187, "MEAN_ANOMALY": 354.1158, "EPHEMERIS_TYPE": 0, "CLASSIFICATION_TYPE": "U", "NORAD_CAT_ID": 31113, "ELEMENT_SET_NO": 999, "REV_AT_EPOCH": 97556, "BSTAR": 5.6728947e-05, "MEAN_MOTION_DOT": 1.08e-06, "MEAN_MOTION_DDOT": 0}, "tle": {"line1": "1 31113U 07010A   25357.92189942  .00000108  00000+0  56729-4 0  9994", "line2": "2 31113  98.3327 341.7386 0013674   6.0187 354.1158 14.30968590975562"}}, "geometry": {"type": "Point", "coordinates": [103.2938276496824, -80.28009092645028]}}, {"type": "Feature", "properties": {"norad_id": 31598, "name": "COSMO-SKYMED 1", "group": "resource", "lat": 23.97008468143867, "lon": 7.330844663392589, "alt_km": 579.0252603402378, "timestamp": "2025-12-24T07:45:05.855421+00:00", "meta": {"OBJECT_NAME": "COSMO-SKYMED 1", "OBJECT_ID": "2007-023A", "EPOCH": "2025-12-23T23:01:51.186144", "MEAN_MOTION": 14.95847218, "ECCENTRICITY": 0.00013716, "INCLINATION": 97.884, "RA_OF_ASC_NODE": 183.433, "ARG_OF_PERICENTER": 78.6345, "MEAN_ANOMALY": 281.5029, "EPHEMERIS_TYPE": 0, "CLASSIFICATION_TYPE": "U", "NORAD_CAT_ID": 31598, "ELEMENT_SET_NO": 999, "REV_AT_EPOCH": 358, "BSTAR": 0.00030003156, "MEAN_MOTION_DOT": 3.293e-05, "MEAN_MOTION_DDOT": 0}, "tle": {"line1": "1 31598U 07023A   25357.95962021  .00003293  00000+0  30003-3 0  9999", "line2": "2 31598  97.8840 183.4330 0001371  78.6345 281.5029 14.95847218  3583"}}, "geometry": {"type": "Point", "coordinates": [7.330844663392589, 23.97008468143867]}}, {"type": "Feature", "properties": {"norad_id": 31698, "name": "TERRASAR-X", "group": "resource", "lat": 62.068119400391694, "lon": -10.743545504463043, "alt_km": 501.2175256129767, "timestamp": "2025-12-24T07:45:05.855435+00:00", "meta": {"OBJECT_NAME": "TERRASAR-X", "OBJECT_ID": "2007-026A", "EPOCH": "2025-12-23T12:30:19.023264", "MEAN_MOTION": 15.19149386, "ECCENTRICITY": 0.00017705, "INCLINATION": 97.4442, "RA_OF_ASC_NODE": 2.7437, "ARG_OF_PERICENTER": 81.4954, "MEAN_ANOMALY": 278.6481, "EPHEMERIS_TYPE": 0, "CLASSIFICATION_TYPE": "U", "NORAD_CAT_ID": 31698, "ELEMENT_SET_NO": 999, "REV_AT_EPOCH": 2655, "BSTAR": 4.2968524e-05, "MEAN_MOTION_DOT": 8.35e-06, "MEAN_MOTION_DDOT": 0}, "tle": {"line1": "1 31698U 07026A   25357.52105351  .00000835  00000+0  42969-4 0  9995", "line2": "2 31698  97.4442   2.7437 0001770  81.4954 278.6481 15.19149386 26559"}}, "geometry": {"type": "Point", "coordinates": [-10.743545504463043, 62.068119400391694]}}, {"type": "Feature", "properties": {"norad_id": 32060, "name": "WORLDVIEW-1 (WV-1)", "group": "resource", "lat": -74.76935779783096, "lon": 144.07478756756814, "alt_km": 500.7110054801242, "timestamp": "2025-12-24T07:45:05.855447+00:00", "meta": {"OBJECT_NAME": "WORLDVIEW-1 (WV-1)", "OBJECT_ID": "2007-041A", "EPOCH": "2025-12-23T21:03:22.377312", "MEAN_MOTION": 15.2393267, "ECCENTRICITY": 0.00032884, "INCLINATION": 97.3828, "RA_OF_ASC_NODE": 115.1965, "ARG_OF_PERICENTER": 359.6506, "MEAN_ANOMALY": 0.4728, "EPHEMERIS_TYPE": 0, "CLASSIFICATION_TYPE": "U", "NORAD_CAT_ID": 32060, "ELEMENT_SET_NO": 999, "REV_AT_EPOCH": 1617, "BSTAR": 0.00035081259, "MEAN_MOTION_DOT": 8.413e-05, "MEAN_MOTION_DDOT": 0}, "tle": {"line1": "1 32060U 07041A   25357.87734233  .00008413  00000+0  35081-3 0  9997", "line2": "2 32060  97.3828 115.1965 0003288 359.6506   0.4728 15.23932670 16177"}}, "geometry": {"type": "Point", "coordinates": [144.07478756756814, -74.76935779783096]}}]}